CCSDS_OMM_VERS = 2.0
CREATION_DATE  = 
ORIGINATOR     = 

OBJECT_NAME    = UNKNOWN
OBJECT_ID      = 
CENTER_NAME    = EARTH
REF_FRAME      = TEME
TIME_SYSTEM    = UTC
MEAN_ELEMENT_THEORY = SGP/SGP4

EPOCH          = 2025-12-04T10:45:30.444192
MEAN_MOTION    = 13.71920752
ECCENTRICITY   = .05758151
INCLINATION    = 81.9692
RA_OF_ASC_NODE = 243.7571
ARG_OF_PERICENTER = 107.2629
MEAN_ANOMALY   = 259.2352

EPHEMERIS_TYPE = 0
CLASSIFICATION_TYPE = U
NORAD_CAT_ID   = 270033
ELEMENT_SET_NO = 999
REV_AT_EPOCH   = 30089
BSTAR          = .52467067E-3
MEAN_MOTION_DOT = .1617E-4
MEAN_MOTION_DDOT = 0

CCSDS_OMM_VERS = 2.0
CREATION_DATE  = 
ORIGINATOR     = 

OBJECT_NAME    = UNKNOWN
OBJECT_ID      = 
CENTER_NAME    = EARTH
REF_FRAME      = TEME
TIME_SYSTEM    = UTC
MEAN_ELEMENT_THEORY = SGP/SGP4

EPOCH          = 2025-12-07T12:25:41.160864
MEAN_MOTION    = 13.26016657
ECCENTRICITY   = .06379308
INCLINATION    = 99.3486
RA_OF_ASC_NODE = 255.7673
ARG_OF_PERICENTER = 297.2268
MEAN_ANOMALY   = 56.5239

EPHEMERIS_TYPE = 0
CLASSIFICATION_TYPE = U
NORAD_CAT_ID   = 270034
ELEMENT_SET_NO = 999
REV_AT_EPOCH   = 7789
BSTAR          = .11329823E-1
MEAN_MOTION_DOT = .15151E-3
MEAN_MOTION_DDOT = 0

CCSDS_OMM_VERS = 2.0
CREATION_DATE  = 
ORIGINATOR     = 

OBJECT_NAME    = UNKNOWN
OBJECT_ID      = 
CENTER_NAME    = EARTH
REF_FRAME      = TEME
TIME_SYSTEM    = UTC
MEAN_ELEMENT_THEORY = SGP/SGP4

EPOCH          = 2025-12-01T16:07:41.371104
MEAN_MOTION    = 14.00027465
ECCENTRICITY   = .00926664
INCLINATION    = 82.4423
RA_OF_ASC_NODE = 322.2710
ARG_OF_PERICENTER = 344.0725
MEAN_ANOMALY   = 15.7533

EPHEMERIS_TYPE = 0
CLASSIFICATION_TYPE = U
NORAD_CAT_ID   = 270035
ELEMENT_SET_NO = 999
REV_AT_EPOCH   = 30579
BSTAR          = .21686193E-2
MEAN_MOTION_DOT = .3325E-4
MEAN_MOTION_DDOT = 0

CCSDS_OMM_VERS = 2.0
CREATION_DATE  = 
ORIGINATOR     = 

OBJECT_NAME    = UNKNOWN
OBJECT_ID      = 
CENTER_NAME    = EARTH
REF_FRAME      = TEME
TIME_SYSTEM    = UTC
MEAN_ELEMENT_THEORY = SGP/SGP4

EPOCH          = 2025-12-05T05:46:31.499904
MEAN_MOTION    = 13.75830361
ECCENTRICITY   = .01072898
INCLINATION    = 100.3736
RA_OF_ASC_NODE = 166.1378
ARG_OF_PERICENTER = 134.4681
MEAN_ANOMALY   = 226.5301

EPHEMERIS_TYPE = 0
CLASSIFICATION_TYPE = U
NORAD_CAT_ID   = 270036
ELEMENT_SET_NO = 999
REV_AT_EPOCH   = 30194
BSTAR          = .13165126E-2
MEAN_MOTION_DOT = .1278E-4
MEAN_MOTION_DDOT = 0

CCSDS_OMM_VERS = 2.0
CREATION_DATE  = 
ORIGINATOR     = 

OBJECT_NAME    = UNKNOWN
OBJECT_ID      = 
CENTER_NAME    = EARTH
REF_FRAME      = TEME
TIME_SYSTEM    = UTC
MEAN_ELEMENT_THEORY = SGP/SGP4

EPOCH          = 2025-12-06T01:13:06.081312
MEAN_MOTION    = 12.79777944
ECCENTRICITY   = .01541881
INCLINATION    = 102.8684
RA_OF_ASC_NODE = 82.8716
ARG_OF_PERICENTER = 62.9229
MEAN_ANOMALY   = 298.7493

EPHEMERIS_TYPE = 0
CLASSIFICATION_TYPE = U
NORAD_CAT_ID   = 270038
ELEMENT_SET_NO = 999
REV_AT_EPOCH   = 27954
BSTAR          = .46631023E-1
MEAN_MOTION_DOT = .11081E-3
MEAN_MOTION_DDOT = 0

CCSDS_OMM_VERS = 2.0
CREATION_DATE  = 
ORIGINATOR     = 

OBJECT_NAME    = UNKNOWN
OBJECT_ID      = 
CENTER_NAME    = EARTH
REF_FRAME      = TEME
TIME_SYSTEM    = UTC
MEAN_ELEMENT_THEORY = SGP/SGP4

EPOCH          = 2025-12-06T11:02:39.286752
MEAN_MOTION    = 14.04408544
ECCENTRICITY   = .0010896
INCLINATION    = 82.5524
RA_OF_ASC_NODE = 43.8194
ARG_OF_PERICENTER = 63.9823
MEAN_ANOMALY   = 296.2469

EPHEMERIS_TYPE = 0
CLASSIFICATION_TYPE = U
NORAD_CAT_ID   = 270039
ELEMENT_SET_NO = 999
REV_AT_EPOCH   = 30784
BSTAR          = .29002332E-2
MEAN_MOTION_DOT = .4635E-4
MEAN_MOTION_DDOT = 0

CCSDS_OMM_VERS = 2.0
CREATION_DATE  = 
ORIGINATOR     = 

OBJECT_NAME    = UNKNOWN
OBJECT_ID      = 
CENTER_NAME    = EARTH
REF_FRAME      = TEME
TIME_SYSTEM    = UTC
MEAN_ELEMENT_THEORY = SGP/SGP4

EPOCH          = 2025-12-06T09:05:42.479232
MEAN_MOTION    = 12.53352921
ECCENTRICITY   = .00268096
INCLINATION    = 101.4107
RA_OF_ASC_NODE = 21.1513
ARG_OF_PERICENTER = 235.9040
MEAN_ANOMALY   = 123.9489

EPHEMERIS_TYPE = 0
CLASSIFICATION_TYPE = U
NORAD_CAT_ID   = 270040
ELEMENT_SET_NO = 999
REV_AT_EPOCH   = 27571
BSTAR          = .46847326E-3
MEAN_MOTION_DOT = .32E-6
MEAN_MOTION_DDOT = 0

CCSDS_OMM_VERS = 2.0
CREATION_DATE  = 
ORIGINATOR     = 

OBJECT_NAME    = UNKNOWN
OBJECT_ID      = 
CENTER_NAME    = EARTH
REF_FRAME      = TEME
TIME_SYSTEM    = UTC
MEAN_ELEMENT_THEORY = SGP/SGP4

EPOCH          = 2025-12-06T13:17:00.234816
MEAN_MOTION    = 13.96161857
ECCENTRICITY   = .02188728
INCLINATION    = 98.4944
RA_OF_ASC_NODE = 89.3320
ARG_OF_PERICENTER = 33.6338
MEAN_ANOMALY   = 327.8500

EPHEMERIS_TYPE = 0
CLASSIFICATION_TYPE = U
NORAD_CAT_ID   = 270041
ELEMENT_SET_NO = 999
REV_AT_EPOCH   = 30617
BSTAR          = .14733486E-2
MEAN_MOTION_DOT = .2438E-4
MEAN_MOTION_DDOT = 0

CCSDS_OMM_VERS = 2.0
CREATION_DATE  = 
ORIGINATOR     = 

OBJECT_NAME    = UNKNOWN
OBJECT_ID      = 
CENTER_NAME    = EARTH
REF_FRAME      = TEME
TIME_SYSTEM    = UTC
MEAN_ELEMENT_THEORY = SGP/SGP4

EPOCH          = 2025-12-06T20:51:45.235584
MEAN_MOTION    = 12.26199285
ECCENTRICITY   = .01374903
INCLINATION    = 74.0200
RA_OF_ASC_NODE = 183.5374
ARG_OF_PERICENTER = 164.6972
MEAN_ANOMALY   = 195.8288

EPHEMERIS_TYPE = 0
CLASSIFICATION_TYPE = U
NORAD_CAT_ID   = 270042
ELEMENT_SET_NO = 999
REV_AT_EPOCH   = 26992
BSTAR          = .54240291E-3
MEAN_MOTION_DOT = .48E-6
MEAN_MOTION_DDOT = 0

CCSDS_OMM_VERS = 2.0
CREATION_DATE  = 
ORIGINATOR     = 

OBJECT_NAME    = UNKNOWN
OBJECT_ID      = 
CENTER_NAME    = EARTH
REF_FRAME      = TEME
TIME_SYSTEM    = UTC
MEAN_ELEMENT_THEORY = SGP/SGP4

EPOCH          = 2025-12-04T09:39:35.132544
MEAN_MOTION    = 13.92079136
ECCENTRICITY   = .02481815
INCLINATION    = 98.9110
RA_OF_ASC_NODE = 33.7369
ARG_OF_PERICENTER = 326.2241
MEAN_ANOMALY   = 32.3318

EPHEMERIS_TYPE = 0
CLASSIFICATION_TYPE = U
NORAD_CAT_ID   = 270043
ELEMENT_SET_NO = 999
REV_AT_EPOCH   = 30437
BSTAR          = .27411018E-2
MEAN_MOTION_DOT = .4466E-4
MEAN_MOTION_DDOT = 0

CCSDS_OMM_VERS = 2.0
CREATION_DATE  = 
ORIGINATOR     = 

OBJECT_NAME    = UNKNOWN
OBJECT_ID      = 
CENTER_NAME    = EARTH
REF_FRAME      = TEME
TIME_SYSTEM    = UTC
MEAN_ELEMENT_THEORY = SGP/SGP4

EPOCH          = 2025-12-07T19:36:15.731136
MEAN_MOTION    = 13.00581023
ECCENTRICITY   = .00140064
INCLINATION    = 90.2504
RA_OF_ASC_NODE = 9.0729
ARG_OF_PERICENTER = 21.3622
MEAN_ANOMALY   = 338.8083

EPHEMERIS_TYPE = 0
CLASSIFICATION_TYPE = U
NORAD_CAT_ID   = 270044
ELEMENT_SET_NO = 999
REV_AT_EPOCH   = 28593
BSTAR          = .12811321E-2
MEAN_MOTION_DOT = .396E-5
MEAN_MOTION_DDOT = 0

CCSDS_OMM_VERS = 2.0
CREATION_DATE  = 
ORIGINATOR     = 

OBJECT_NAME    = UNKNOWN
OBJECT_ID      = 
CENTER_NAME    = EARTH
REF_FRAME      = TEME
TIME_SYSTEM    = UTC
MEAN_ELEMENT_THEORY = SGP/SGP4

EPOCH          = 2025-12-01T09:14:36.671424
MEAN_MOTION    = 12.96401403
ECCENTRICITY   = .00368019
INCLINATION    = 90.2498
RA_OF_ASC_NODE = 8.9199
ARG_OF_PERICENTER = 292.6229
MEAN_ANOMALY   = 67.1000

EPHEMERIS_TYPE = 0
CLASSIFICATION_TYPE = U
NORAD_CAT_ID   = 270045
ELEMENT_SET_NO = 999
REV_AT_EPOCH   = 28452
BSTAR          = .26907026E-2
MEAN_MOTION_DOT = .778E-5
MEAN_MOTION_DDOT = 0

CCSDS_OMM_VERS = 2.0
CREATION_DATE  = 
ORIGINATOR     = 

OBJECT_NAME    = UNKNOWN
OBJECT_ID      = 
CENTER_NAME    = EARTH
REF_FRAME      = TEME
TIME_SYSTEM    = UTC
MEAN_ELEMENT_THEORY = SGP/SGP4

EPOCH          = 2025-12-02T22:34:10.070112
MEAN_MOTION    = 12.62571563
ECCENTRICITY   = .00575697
INCLINATION    = 73.9955
RA_OF_ASC_NODE = 59.9829
ARG_OF_PERICENTER = 127.4009
MEAN_ANOMALY   = 233.2309

EPHEMERIS_TYPE = 0
CLASSIFICATION_TYPE = U
NORAD_CAT_ID   = 270046
ELEMENT_SET_NO = 999
REV_AT_EPOCH   = 27721
BSTAR          = .18825223E-3
MEAN_MOTION_DOT = .18E-6
MEAN_MOTION_DDOT = 0

CCSDS_OMM_VERS = 2.0
CREATION_DATE  = 
ORIGINATOR     = 

OBJECT_NAME    = UNKNOWN
OBJECT_ID      = 
CENTER_NAME    = EARTH
REF_FRAME      = TEME
TIME_SYSTEM    = UTC
MEAN_ELEMENT_THEORY = SGP/SGP4

EPOCH          = 2025-12-07T13:00:05.929056
MEAN_MOTION    = 13.77750364
ECCENTRICITY   = .00345372
INCLINATION    = 82.9692
RA_OF_ASC_NODE = 278.9884
ARG_OF_PERICENTER = 34.6043
MEAN_ANOMALY   = 325.7352

EPHEMERIS_TYPE = 0
CLASSIFICATION_TYPE = U
NORAD_CAT_ID   = 270053
ELEMENT_SET_NO = 999
REV_AT_EPOCH   = 30286
BSTAR          = .75463897E-3
MEAN_MOTION_DOT = .772E-5
MEAN_MOTION_DDOT = 0

CCSDS_OMM_VERS = 2.0
CREATION_DATE  = 
ORIGINATOR     = 

OBJECT_NAME    = UNKNOWN
OBJECT_ID      = 
CENTER_NAME    = EARTH
REF_FRAME      = TEME
TIME_SYSTEM    = UTC
MEAN_ELEMENT_THEORY = SGP/SGP4

EPOCH          = 2025-12-05T18:23:17.883744
MEAN_MOTION    = 12.98522413
ECCENTRICITY   = .00292872
INCLINATION    = 90.2126
RA_OF_ASC_NODE = 343.7453
ARG_OF_PERICENTER = 163.3957
MEAN_ANOMALY   = 196.8130

EPHEMERIS_TYPE = 0
CLASSIFICATION_TYPE = U
NORAD_CAT_ID   = 270054
ELEMENT_SET_NO = 999
REV_AT_EPOCH   = 28541
BSTAR          = .33525566E-2
MEAN_MOTION_DOT = .997E-5
MEAN_MOTION_DDOT = 0

CCSDS_OMM_VERS = 2.0
CREATION_DATE  = 
ORIGINATOR     = 

OBJECT_NAME    = UNKNOWN
OBJECT_ID      = 
CENTER_NAME    = EARTH
REF_FRAME      = TEME
TIME_SYSTEM    = UTC
MEAN_ELEMENT_THEORY = SGP/SGP4

EPOCH          = 2025-12-03T19:29:17.832480
MEAN_MOTION    = 12.99258073
ECCENTRICITY   = .00310686
INCLINATION    = 90.2446
RA_OF_ASC_NODE = 0.6562
ARG_OF_PERICENTER = 152.6362
MEAN_ANOMALY   = 207.6404

EPHEMERIS_TYPE = 0
CLASSIFICATION_TYPE = U
NORAD_CAT_ID   = 270055
ELEMENT_SET_NO = 999
REV_AT_EPOCH   = 28544
BSTAR          = .20274661E-2
MEAN_MOTION_DOT = .612E-5
MEAN_MOTION_DDOT = 0

